GLOBALSTAR M023 [+]     
1 25621U 99004A   24020.62027255 -.00000047  00000+0  31527-3 0  9997
2 25621  52.0086 177.1860 0011068  73.7451   6.4269 12.62443631150951
GLOBALSTAR M040 [-]     
1 25622U 99004B   24020.89095153 -.00000045  00000+0  32643-3 0  9997
2 25622  51.9896 179.7664 0001065  58.9696 105.8698 12.61965429150448
GLOBALSTAR M036 [-]     
1 25623U 99004C   24020.70557845 -.00000064  00000+0  26669-3 0  9991
2 25623  51.9951 153.6941 0012236 146.0392 321.5391 11.86559099118027
GLOBALSTAR M038 [-]     
1 25624U 99004D   24020.43132784 -.00000072  00000+0  19122-3 0  9998
2 25624  51.9973 111.0822 0002288  81.3347 358.4621 12.32491736139028
GLOBALSTAR M022 [-]     
1 25649U 99012A   24020.96730851 -.00000047  00000+0  47941-3 0  9993
2 25649  52.0015 246.0407 0001624 219.3117 250.3008 12.02476770114630
GLOBALSTAR M041 [-]     
1 25650U 99012B   24020.52180204 -.00000052  00000+0  42532-3 0  9995
2 25650  52.0021 113.0398 0002144  46.6493 313.4522 11.96653152116780
GLOBALSTAR M037 [+]     
1 25652U 99012D   24020.97255924 -.00000065  00000+0  21851-3 0  9993
2 25652  52.0020 306.9328 0002149 112.1698 327.1797 12.62393642146450
